NORAD_CAT_ID,OBJECT_NAME,OBJECT_TYPE,EPOCH,MEAN_MOTION,ECCENTRICITY,INCLINATION,RA_OF_ASC_NODE,ARG_OF_PERICENTER,MEAN_ANOMALY,BSTAR,MEAN_MOTION_DOT,MEAN_MOTION_DDOT,TLE_LINE0,TLE_LINE1,TLE_LINE2,SEMIMAJOR_AXIS,PERIOD,APOGEE,PERIGEE,DECAYED
51111.0,STARLINK-3173,PAYLOAD,2022-05-24 22:00:00,15.08834935,0.0001623,53.2123,25.6103,58.6369,238.5276,4.373100000000001e-05,4.08e-06,0.0,0 STARLINK-3173,1 51111U 22005H   22144.91667824  .00000408  00000-0  43731-4 0  9998,2 51111  53.2123  25.6103 0001623  58.6369 238.5276 15.08834935 20936,6917.896,95.438,540.884,538.638,0.0
51111.0,STARLINK-3173,PAYLOAD,2022-05-25 14:00:01,15.08811907,0.0001629999999999,53.2125,22.6156,65.0997,255.2653,0.0039214,0.00062628,0.0,0 STARLINK-3173,1 51111U 22005H   22145.58334491  .00062628  00000-0  39214-2 0  9994,2 51111  53.2125  22.6156 0001630  65.0997 255.2653 15.08811907  1309,6917.965999999999,95.439,540.9590000000002,538.7040000000002,0.0
51111.0,STARLINK-3173,PAYLOAD,2022-05-25 20:32:05,15.08848978,0.0001626999999999,53.2149,21.3931,62.6652,297.4505,5.1457000000000006e-06,-2.06e-06,0.0,0 STARLINK-3173,1 51111U 22005H   22145.85561506 -.00000206  00000-0  51457-5 0  9994,2 51111  53.2149  21.3931 0001627  62.6652 297.4505 15.08848978 19962,6917.853,95.437,540.8430000000002,538.592,0.0
51111.0,STARLINK-3173,PAYLOAD,2022-05-26 06:00:00,15.08861034,0.000165,53.2127,19.624,55.3927,288.1602,-0.0029975,-0.00047705,0.0,0 STARLINK-3173,1 51111U 22005H   22146.25001157 -.00047705  00000-0 -29975-2 0  9993,2 51111  53.2127  19.6240 0001650  55.3927 288.1602 15.08861034 21136,6917.816,95.436,540.823,538.54,0.0
51111.0,STARLINK-3173,PAYLOAD,2022-05-26 09:15:10,15.08841813,0.0001771,53.215,19.0143,64.0879,296.0296,0.00010489,1.382e-05,0.0,0 STARLINK-3173,1 51111U 22005H   22146.38553530  .00001382  00000-0  10489-3 0  9994,2 51111  53.2150  19.0143 0001771  64.0879 296.0296 15.08841813 20044,6917.875,95.437,540.965,538.515,0.0
51111.0,STARLINK-3173,PAYLOAD,2022-05-26 21:58:15,15.08834671,0.0001852,53.2148,16.6344,69.126,290.993,4.2145e-05,3.83e-06,0.0,0 STARLINK-3173,1 51111U 22005H   22146.91546238  .00000383  00000-0  42145-4 0  9995,2 51111  53.2148  16.6344 0001852  69.1260 290.9930 15.08834671 20128,6917.897,95.438,541.043,538.48,0.0
51111.0,STARLINK-3173,PAYLOAD,2022-05-26 22:00:00,15.08835747,0.0001661,53.2131,16.6315,55.8879,310.8443,-0.00043677,-7.232e-05,0.0,0 STARLINK-3173,1 51111U 22005H   22146.91667824 -.00007232  00000-0 -43677-3 0  9992,2 51111  53.2131  16.6315 0001661  55.8879 310.8443 15.08835747 21233,6917.893,95.438,540.9069999999998,538.609,0.0
51111.0,STARLINK-3173,PAYLOAD,2022-05-27 14:00:01,15.08806798,0.0001626999999999,53.2133,13.6368,64.5319,325.3686,0.0030448,0.00048459,0.0,0 STARLINK-3173,1 51111U 22005H   22147.58334491  .00048459  00000-0  30448-2 0  9992,2 51111  53.2133  13.6368 0001627  64.5319 325.3686 15.08806798  1308,6917.982,95.44,540.972,538.721,0.0
51111.0,STARLINK-3173,PAYLOAD,2022-05-27 21:49:03,15.08832061,0.0001631999999999,53.2139,12.1748,60.0888,300.0266,-3.4686e-05,-8.400000000000001e-06,0.0,0 STARLINK-3173,1 51111U 22005H   22147.90906892 -.00000840  00000-0 -34686-4 0  9992,2 51111  53.2139  12.1748 0001632  60.0888 300.0266 15.08832061 20271,6917.905,95.438,540.899,538.641,0.0
51111.0,STARLINK-3173,PAYLOAD,2022-05-27 22:00:01,15.08833126,0.000177,53.2132,12.1421,58.6438,342.8927,-9.9653e-05,-1.873e-05,0.0,0 STARLINK-3173,1 51111U 22005H   22147.91668981 -.00001873  00000-0 -99653-4 0  9999,2 51111  53.2132  12.1421 0001770  58.6438 342.8927 15.08833126 21383,6917.901,95.438,540.991,538.5419999999998,0.0
51111.0,STARLINK-3173,PAYLOAD,2022-05-28 14:00:01,15.08858956,0.0001656,53.2132,9.1474,66.235,358.4395,0.00041367,6.305e-05,0.0,0 STARLINK-3173,1 51111U 22005H   22148.58334491  .00006305  00000-0  41367-3 0  9990,2 51111  53.2132   9.1474 0001656  66.2350 358.4395 15.08858956 21489,6917.821999999999,95.436,540.8330000000002,538.5419999999998,0.0
51111.0,STARLINK-3173,PAYLOAD,2022-05-28 21:39:49,15.08842646,0.0001575999999999,53.2137,7.7129,59.2798,300.8349,0.00014236,1.979e-05,0.0,0 STARLINK-3173,1 51111U 22005H   22148.90265643  .00001979  00000-0  14236-3 0  9995,2 51111  53.2137   7.7129 0001576  59.2798 300.8349 15.08842646 20426,6917.871999999999,95.437,540.828,538.6469999999998,0.0
51111.0,STARLINK-3173,PAYLOAD,2022-05-29 06:00:02,15.08844964,0.0001477,53.2126,6.1553,56.0866,31.8691,-0.0010836,-0.00017494,0.0,0 STARLINK-3173,1 51111U 22005H   22149.25002315 -.00017494  00000-0 -10836-2 0  9991,2 51111  53.2126   6.1553 0001477  56.0866  31.8691 15.08844964 21594,6917.865,95.437,540.752,538.7080000000002,0.0
51111.0,STARLINK-3173,PAYLOAD,2022-05-29 14:00:01,15.08838444,0.0001466,53.2128,4.6579,64.9075,34.5592,-0.0015372,-0.00024668,0.0,0 STARLINK-3173,1 51111U 22005H   22149.58334491 -.00024668  00000-0 -15372-2 0  9991,2 51111  53.2128   4.6579 0001466  64.9075  34.5592 15.08838444  1308,6917.885,95.438,540.764,538.736,0.0
51111.0,STARLINK-3173,PAYLOAD,2022-05-29 21:30:38,15.0882549,0.0001648,53.2135,3.2524,63.9361,296.18,4.1632e-05,3.74e-06,0.0,0 STARLINK-3173,1 51111U 22005H   22149.89627380  .00000374  00000-0  41632-4 0  9993,2 51111  53.2135   3.2524 0001648  63.9361 296.1800 15.08825490 20575,6917.925,95.438,540.93,538.65,0.0
51111.0,STARLINK-3173,PAYLOAD,2022-05-30 14:00:01,15.08821267,0.0001553,53.2122,0.1685,68.1486,66.0297,0.0013914,0.00021914,0.0,0 STARLINK-3173,1 51111U 22005H   22150.58334491  .00021914  00000-0  13914-2 0  9992,2 51111  53.2122   0.1685 0001553  68.1486  66.0297 15.08821267 21792,6917.938,95.439,540.877,538.7280000000002,0.0
51111.0,STARLINK-3173,PAYLOAD,2022-05-30 22:00:00,15.08821982,0.0001669,53.2126,358.6737,60.4638,85.2985,0.00084206,0.00013132,0.0,0 STARLINK-3173,1 51111U 22005H   22150.91667824  .00013132  00000-0  84206-3 0  9994,2 51111  53.2126 358.6737 0001669  60.4638  85.2985 15.08821982  1303,6917.935,95.439,540.955,538.646,0.0
51111.0,STARLINK-3173,PAYLOAD,2022-05-31 06:00:02,15.08849382,0.0001588,53.2129,357.176,62.5004,94.9017,-0.0015342,-0.00024628,0.0,0 STARLINK-3173,1 51111U 22005H   22151.25002315 -.00024628  00000-0 -15342-2 0  9998,2 51111  53.2129 357.1760 0001588  62.5004  94.9017 15.08849382 21899,6917.852,95.437,540.815,538.618,0.0
51111.0,STARLINK-3173,PAYLOAD,2022-05-31 22:00:00,15.08841578,0.0001694,53.2134,354.1841,60.2727,120.2735,0.0016576,0.00026192,0.0,0 STARLINK-3173,1 51111U 22005H   22151.91667824  .00026192  00000-0  16576-2 0  9999,2 51111  53.2134 354.1841 0001694  60.2727 120.2735 15.08841578 21997,6917.876,95.437,540.9119999999998,538.569,0.0
51111.0,STARLINK-3173,PAYLOAD,2022-06-01 14:00:01,15.088656,0.0001537,53.2136,351.1891,67.3845,136.3824,-0.0018632,-0.00029839,0.0,0 STARLINK-3173,1 51111U 22005H   22152.58334491 -.00029839  00000-0 -18632-2 0  9992,2 51111  53.2136 351.1891 0001537  67.3845 136.3824 15.08865600 22097,6917.802,95.436,540.73,538.604,0.0
51111.0,STARLINK-3173,PAYLOAD,2022-06-01 20:00:01,15.08850833,0.0001569,53.2134,350.0681,58.6301,63.8499,-0.0032181,-0.00051156,0.0,0 STARLINK-3173,1 51111U 22005H   22152.83334491 -.00051156  00000-0 -32181-2 0  9992,2 51111  53.2134 350.0681 0001569  58.6301  63.8499 15.08850833  1300,6917.847,95.437,540.798,538.627,0.0
51111.0,STARLINK-3173,PAYLOAD,2022-06-02 19:18:23,15.08834845,0.000156,53.2159,345.7076,61.2693,298.8455,-4.4877e-05,-1.002e-05,0.0,0 STARLINK-3173,1 51111U 22005H   22153.80444255 -.00001002  00000-0 -44877-4 0  9992,2 51111  53.2159 345.7076 0001560  61.2693 298.8455 15.08834845 22277,6917.896,95.438,540.84,538.682,0.0
51111.0,STARLINK-3173,PAYLOAD,2022-06-03 12:47:37,15.08843502,0.0001574,53.2152,342.4363,60.7111,299.4038,-4.9789e-05,-1.0800000000000003e-05,0.0,0 STARLINK-3173,1 51111U 22005H   22154.53307638 -.00001080  00000-0 -49789-4 0  9999,2 51111  53.2152 342.4363 0001574  60.7111 299.4038 15.08843502 22383,6917.87,95.437,540.8240000000002,538.646,0.0
51111.0,STARLINK-3173,PAYLOAD,2022-06-03 15:58:23,15.08845554,0.000159,53.2149,341.8415,61.0372,299.078,-2.5661e-05,-6.96e-06,0.0,0 STARLINK-3173,1 51111U 22005H   22154.66555408 -.00000696  00000-0 -25661-4 0  9998,2 51111  53.2149 341.8415 0001590  61.0372 299.0780 15.08845554 21299,6917.863,95.437,540.828,538.628,0.0
51111.0,STARLINK-3173,PAYLOAD,2022-06-04 12:38:24,15.08842832,0.0001476,53.215,337.9752,60.1523,299.9616,0.00018485,2.655e-05,0.0,0 STARLINK-3173,1 51111U 22005H   22155.52666792  .00002655  00000-0  18485-3 0  9993,2 51111  53.2150 337.9752 0001476  60.1523 299.9616 15.08842832 21420,6917.871999999999,95.437,540.758,538.716,0.0
51111.0,STARLINK-3173,PAYLOAD,2022-06-05 22:00:00,15.08802104,0.0001576999999999,53.2145,331.7367,57.282,297.2464,0.0027302,0.00043386,0.0,0 STARLINK-3173,1 51111U 22005H   22156.91667824  .00043386  00000-0  27302-2 0  9997,2 51111  53.2145 331.7367 0001577  57.2820 297.2464 15.08802104 22743,6917.996,95.44,540.952,538.77,0.0
51111.0,STARLINK-3173,PAYLOAD,2022-06-06 14:00:01,15.08850336,0.0001458,53.2145,328.7427,65.8972,311.7783,-0.0014072,-0.0002262,0.0,0 STARLINK-3173,1 51111U 22005H   22157.58334491 -.00022620  00000-0 -14072-2 0  9992,2 51111  53.2145 328.7427 0001458  65.8972 311.7783 15.08850336 22844,6917.849,95.437,540.722,538.705,0.0
51111.0,STARLINK-3173,PAYLOAD,2022-06-06 22:00:00,15.08817088,0.0001549,53.214,327.2476,58.2166,331.0627,0.0028408,0.00045185,0.0,0 STARLINK-3173,1 51111U 22005H   22157.91667824  .00045185  00000-0  28408-2 0  9995,2 51111  53.2140 327.2476 0001549  58.2166 331.0627 15.08817088  1306,6917.95,95.439,540.887,538.744,0.0
51111.0,STARLINK-3173,PAYLOAD,2022-06-07 04:13:49,15.08839912,0.0001555,53.2148,326.08,62.46100000000001,297.654,6.2587e-05,7.08e-06,0.0,0 STARLINK-3173,1 51111U 22005H   22158.17627238  .00000708  00000-0  62587-4 0  9999,2 51111  53.2148 326.0800 0001555  62.4610 297.6540 15.08839912 22933,6917.880999999999,95.438,540.821,538.67,0.0
